GLOBALSTAR M024 [-]     
1 25883U 99043A   24113.62561528 -.00000095  00000+0 -10550-2 0  9995
2 25883  52.0022 249.5461 0002203 132.0153 314.2213 11.10161170 68157
GLOBALSTAR M027 [-]     
1 25884U 99043B   24113.79365970  .00000001  00000+0  24524-2 0  9998
2 25884  52.0221 315.2432 0021721  34.2721 325.9469 11.04368390 94795
GLOBALSTAR M054 [-]     
1 25885U 99043C   24114.28462394 -.00000080  00000+0 -22715-3 0  9992
2 25885  52.0109 151.9112 0004845 177.6033 276.5203 11.39202572 71527
GLOBALSTAR M053 [-]     
1 25886U 99043D   24113.91536181 -.00000070  00000+0 -43163-4 0  9998
2 25886  51.9983  76.5714 0003485  84.0559   2.2108 11.27654689 72031
GLOBALSTAR M058 [-]     
1 25907U 99049A   24113.52618872 -.00000099  00000+0 -19818-3 0  9993
2 25907  51.9916 152.4288 0002492 188.7976 171.2815 11.93175947491320
GLOBALSTAR M050 [-]     
1 25908U 99049B   24113.92846150  .00000026  00000+0  12933-2 0  9998
2 25908  51.9976 190.4277 0008853 271.9941 133.4478 12.07432114102154
GLOBALSTAR M033 [-]     
1 25909U 99049C   24113.90608577 -.00000011  00000+0  77659-3 0  9998
2 25909  51.9901  91.3498 0011705 124.5790 235.6163 12.20270262484431
GLOBALSTAR M055 [-]     
1 25910U 99049D   24114.17264443 -.00000039  00000+0  47014-3 0  9992
2 25910  51.9994 121.7875 0006976 340.1074  19.9505 12.29399850116841
